[{"OBJECT_NAME":"STARLINK-34975","OBJECT_ID":"2025-176AC","EPOCH":"2026-03-09T12:53:31.548480","MEAN_MOTION":15.30190492,"ECCENTRICITY":0.00016464,"INCLINATION":53.1588,"RA_OF_ASC_NODE":153.6775,"ARG_OF_PERICENTER":76.064,"MEAN_ANOMALY":284.0544,"EPHEMERIS_TYPE":0,"CLASSIFICATION_TYPE":"U","NORAD_CAT_ID":65224,"ELEMENT_SET_NO":999,"REV_AT_EPOCH":3309,"BSTAR":0.0005970783,"MEAN_MOTION_DOT":0.00017361,"MEAN_MOTION_DDOT":0},{"OBJECT_NAME":"COSMOS 1782","OBJECT_ID":"1986-074A","EPOCH":"2026-03-09T22:40:22.374624","MEAN_MOTION":15.33314157,"ECCENTRICITY":0.00054418,"INCLINATION":82.5242,"RA_OF_ASC_NODE":238.1482,"ARG_OF_PERICENTER":197.7479,"MEAN_ANOMALY":162.3574,"EPHEMERIS_TYPE":0,"CLASSIFICATION_TYPE":"U","NORAD_CAT_ID":16986,"ELEMENT_SET_NO":999,"REV_AT_EPOCH":13134,"BSTAR":0.00042191031,"MEAN_MOTION_DOT":0.00013623,"MEAN_MOTION_DDOT":0}]
